[{"OBJECT_NAME":"COSMOS 2588","OBJECT_ID":"2025-109A","EPOCH":"2026-03-09T19:28:59.107008","MEAN_MOTION":15.29122656,"ECCENTRICITY":0.0005019,"INCLINATION":72.9704,"RA_OF_ASC_NODE":73.5401,"ARG_OF_PERICENTER":308.678,"MEAN_ANOMALY":51.3966,"EPHEMERIS_TYPE":0,"CLASSIFICATION_TYPE":"U","NORAD_CAT_ID":64095,"ELEMENT_SET_NO":999,"REV_AT_EPOCH":4442,"BSTAR":0.00032611,"MEAN_MOTION_DOT":9.169e-5,"MEAN_MOTION_DDOT":0},{"OBJECT_NAME":"STARLINK-34792","OBJECT_ID":"2025-167H","EPOCH":"2026-03-09T07:03:26.373600","MEAN_MOTION":15.30187314,"ECCENTRICITY":0.00013155,"INCLINATION":53.1617,"RA_OF_ASC_NODE":28.8965,"ARG_OF_PERICENTER":113.0373,"MEAN_ANOMALY":247.0767,"EPHEMERIS_TYPE":0,"CLASSIFICATION_TYPE":"U","NORAD_CAT_ID":65085,"ELEMENT_SET_NO":999,"REV_AT_EPOCH":3341,"BSTAR":0.0012552619,"MEAN_MOTION_DOT":0.00036989,"MEAN_MOTION_DDOT":0}]
