COSMOS 2588             
1 64095U 25109A   26068.81179522  .00009169  00000+0  32611-3 0  9998
2 64095  72.9704  73.5401 0005019 308.6780  51.3966 15.29122656 44425
STARLINK-34792          
1 65085U 25167H   26068.29405525  .00036989  00000+0  12553-2 0  9991
2 65085  53.1617  28.8965 0001315 113.0373 247.0767 15.30187314 33412
